H1 CPF 01  gfz 2021 03 25 13  5842 tandemx   
H2 1003001  6202 36605    2021 03 25 12 59 42 2021 03 30 00 00 42   120 1 1  0 0 0
H9
10 0 59298  46782.000000  0    1900583.311   6377665.076   1773842.998
10 0 59298  46902.000000  0    1987070.867   6045702.317   2629746.761
10 0 59298  47022.000000  0    2032070.497   5606879.604   3439343.293
10 0 59298  47142.000000  0    2033003.174   5069628.943   4188381.932
10 0 59298  47262.000000  0    1988228.042   4444150.940   4863691.245
10 0 59298  47382.000000  0    1897098.436   3742209.434   5453412.788
10 0 59298  47502.000000  0    1759995.388   2976900.795   5947204.830
10 0 59298  47622.000000  0    1578340.162   2162403.580   6336419.655
10 0 59298  47742.000000  0    1354583.950   1313709.914   6614250.328
10 0 59298  47862.000000  0    1092175.591    446345.174   6775843.006
10 0 59298  47982.000000  0     795508.288   -423916.023   6818375.488
10 0 59298  48102.000000  0     469845.924  -1281335.751   6741105.121
10 0 59298  48222.000000  0     121229.431  -2110497.785   6545381.339
10 0 59298  48342.000000  0    -243635.370  -2896584.992   6234623.539
10 0 59298  48462.000000  0    -617505.630  -3625645.644   5814263.263
10 0 59298  48582.000000  0    -992742.250  -4284841.540   5291653.075
10 0 59298  48702.000000  0   -1361462.902  -4862677.625   4675946.331
10 0 59298  48822.000000  0   -1715706.245  -5349211.198   3977944.495
10 0 59298  48942.000000  0   -2047602.004  -5736233.376   3209910.697
10 0 59298  49062.000000  0   -2349543.478  -6017416.259   2385354.248
10 0 59298  49182.000000  0   -2614358.239  -6188423.469   1518790.989
10 0 59298  49302.000000  0   -2835472.416  -6246982.292    625482.870
10 0 59298  49422.000000  0   -3007064.761  -6192914.626   -278838.025
10 0 59298  49542.000000  0   -3124206.485  -6028125.745  -1178255.130
10 0 59298  49662.000000  0   -3182983.455  -5756550.703  -2056956.540
10 0 59298  49782.000000  0   -3180597.695  -5384059.902  -2899520.837
10 0 59298  49902.000000  0   -3115445.354  -4918326.450  -3691193.565
10 0 59298  50022.000000  0   -2987168.938  -4368659.153  -4418147.326
10 0 59298  50142.000000  0   -2796683.716  -3745807.428  -5067720.437
10 0 59298  50262.000000  0   -2546178.705  -3061743.138  -5628631.245
10 0 59298  50382.000000  0   -2239092.706  -2329424.328  -6091165.237
10 0 59298  50502.000000  0   -1880065.253  -1562546.110  -6447333.090
10 0 59298  50622.000000  0   -1474863.824   -775283.425  -6690997.087
10 0 59298  50742.000000  0   -1030290.425     17968.699  -6817965.201
10 0 59298  50862.000000  0    -554068.771    802852.703  -6826054.599
10 0 59298  50982.000000  0     -54712.396   1565301.532  -6715125.110
10 0 59298  51102.000000  0     458622.709   2291783.777  -6487081.359
10 0 59298  51222.000000  0     976301.479   2969539.033  -6145845.981
10 0 59298  51342.000000  0    1488387.086   3586799.993  -5697299.201
10 0 59298  51462.000000  0    1984827.238   4132996.499  -5149186.937
10 0 59298  51582.000000  0    2455648.710   4598939.642  -4510999.036
10 0 59298  51702.000000  0    2891156.211   4976983.252  -3793815.891
10 0 59298  51822.000000  0    3282131.193   5261157.684  -3010125.042
10 0 59298  51942.000000  0    3620027.754   5447273.685  -2173610.463
10 0 59298  52062.000000  0    3897160.102   5532992.125  -1298915.997
10 0 59298  52182.000000  0    4106876.396   5517858.299   -401387.837
10 0 59298  52302.000000  0    4243714.583   5403298.615    503199.702
10 0 59298  52422.000000  0    4303536.115   5192578.448   1398928.820
10 0 59298  52542.000000  0    4283632.682   4890722.748   2270025.559
10 0 59298  52662.000000  0    4182806.457   4504403.997   3101146.415
10 0 59298  52782.000000  0    4001417.045   4041793.912   3877658.092
10 0 59298  52902.000000  0    3741396.412   3512387.213   4585899.125
10 0 59298  53022.000000  0    3406234.029   2926802.808   5213422.966
10 0 59298  53142.000000  0    3000926.835   2296564.974   5749218.547
10 0 59298  53262.000000  0    2531900.279   1633870.901   6183897.493
10 0 59298  53382.000000  0    2006903.268    951350.931   6509853.587
10 0 59298  53502.000000  0    1434876.408    261825.583   6721389.217
10 0 59298  53622.000000  0     825797.250   -421934.207   6814809.526
10 0 59298  53742.000000  0     190505.240  -1087443.552   6788484.301
10 0 59298  53862.000000  0    -459491.627  -1722731.763   6642874.260
10 0 59298  53982.000000  0   -1112225.310  -2316557.646   6380522.783
10 0 59298  54102.000000  0   -1755486.826  -2858608.348   6006012.584
10 0 59298  54222.000000  0   -2377052.154  -3339679.114   5525891.294
10 0 59298  54342.000000  0   -2964915.521  -3751833.541   4948565.186
10 0 59298  54462.000000  0   -3507525.846  -4088539.603   4284157.845
10 0 59298  54582.000000  0   -3994017.732  -4344777.509   3544335.771
10 0 59298  54702.000000  0   -4414432.458  -4517118.265   2742105.522
10 0 59298  54822.000000  0   -4759925.737  -4603771.621   1891585.397
10 0 59298  54942.000000  0   -5022957.297  -4604600.959   1007753.138
10 0 59298  55062.000000  0   -5197456.188  -4521103.819    106175.931
10 0 59298  55182.000000  0   -5278958.102  -4356359.164   -797271.834
10 0 59298  55302.000000  0   -5264710.808  -4114942.429  -1686697.616
10 0 59298  55422.000000  0   -5153743.961  -3802809.432  -2546479.824
10 0 59298  55542.000000  0   -4946901.674  -3427153.287  -3361548.306
10 0 59298  55662.000000  0   -4646839.062  -2996239.431  -4117651.041
10 0 59298  55782.000000  0   -4257983.510  -2519222.812  -4801602.747
10 0 59298  55902.000000  0   -3786461.260  -2005951.606  -5401510.511
10 0 59298  56022.000000  0   -3239992.452  -1466762.723  -5906972.873
10 0 59298  56142.000000  0   -2627757.636   -912273.227  -6309250.034
10 0 59298  56262.000000  0   -1960238.280   -353172.478  -6601403.769
10 0 59298  56382.000000  0   -1249034.269    199980.824  -6778405.023
10 0 59298  56502.000000  0    -506664.169    736952.750  -6837209.880
10 0 59298  56622.000000  0     253650.467   1248018.555  -6776806.327
10 0 59298  56742.000000  0    1018213.761   1724133.511  -6598229.996
10 0 59298  56862.000000  0    1773096.745   2157089.765  -6304550.708
10 0 59298  56982.000000  0    2504386.066   2539656.330  -5900825.150
10 0 59298  57102.000000  0    3198436.934   2865699.793  -5394018.270
10 0 59298  57222.000000  0    3842124.903   3130283.609  -4792894.098
10 0 59298  57342.000000  0    4423095.977   3329746.146  -4107876.581
10 0 59298  57462.000000  0    4930008.701   3461753.958  -3350878.670
10 0 59298  57582.000000  0    5352761.663   3525328.841  -2535102.260
10 0 59298  57702.000000  0    5682702.282   3520849.211  -1674812.801
10 0 59298  57822.000000  0    5912811.982   3450023.272   -785089.824
10 0 59298  57942.000000  0    6037861.203   3315834.447    118440.358
10 0 59298  58062.000000  0    6054531.457   3122460.280   1019885.018
10 0 59298  58182.000000  0    5961499.364   2875166.307   1903372.732
10 0 59298  58302.000000  0    5759480.106   2580178.690   2753341.339
10 0 59298  58422.000000  0    5451230.472   2244537.522   3554821.163
10 0 59298  58542.000000  0    5041509.005   1875934.447   4293705.761
10 0 59298  58662.000000  0    4536995.565   1482539.795   4957003.541
10 0 59298  58782.000000  0    3946176.003   1072823.315   5533065.850
10 0 59298  58902.000000  0    3279190.530    655372.905   6011791.796
10 0 59298  59022.000000  0    2547649.714    238715.361   6384799.223
10 0 59298  59142.000000  0    1764427.414   -168855.584   6645564.378
10 0 59298  59262.000000  0     943431.282   -559442.832   6789531.406
10 0 59298  59382.000000  0      99352.809   -925698.261   6814187.848
10 0 59298  59502.000000  0    -752596.261  -1260960.121   6719104.688
10 0 59298  59622.000000  0   -1596957.497  -1559374.284   6505942.550
10 0 59298  59742.000000  0   -2418304.716  -1815996.222   6178423.161
10 0 59298  59862.000000  0   -3201523.856  -2026872.361   5742269.678
10 0 59298  59982.000000  0   -3932094.375  -2189102.273   5205115.133
10 0 59298  60102.000000  0   -4596363.977  -2300878.968   4576373.778
10 0 59298  60222.000000  0   -5181810.110  -2361505.627   3867080.128
10 0 59298  60342.000000  0   -5677283.027  -2371387.951   3089698.031
10 0 59298  60462.000000  0   -6073226.208  -2332003.295   2257903.427
10 0 59298  60582.000000  0   -6361870.211  -2245848.139   1386342.707
10 0 59298  60702.000000  0   -6537393.065  -2116362.938    490368.076
10 0 59298  60822.000000  0   -6596040.702  -1947836.097   -414240.436
10 0 59298  60942.000000  0   -6536207.621  -1745289.998  -1311562.126
10 0 59298  61062.000000  0   -6358472.523  -1514352.287  -2185825.106
10 0 59298  61182.000000  0   -6065589.874  -1261116.044  -3021690.573
10 0 59298  61302.000000  0   -5662438.414   -991992.487  -3804526.338
10 0 59298  61422.000000  0   -5155928.687   -713559.529  -4520664.240
10 0 59298  61542.000000  0   -4554872.236   -432409.914  -5157636.393
10 0 59298  61662.000000  0   -3869815.945   -155003.324  -5704386.174
10 0 59298  61782.000000  0   -3112846.138    112474.610  -6151450.477
10 0 59298  61902.000000  0   -2297368.512    364243.400  -6491111.173
10 0 59298  62022.000000  0   -1437868.220    595045.810  -6717516.805
10 0 59298  62142.000000  0    -549653.360    800251.840  -6826772.997
10 0 59298  62262.000000  0     351412.673    975947.965  -6817000.830
10 0 59298  62382.000000  0    1249186.194   1119008.498  -6688366.175
10 0 59298  62502.000000  0    2127526.276   1227149.956  -6443079.686
10 0 59298  62622.000000  0    2970579.382   1298967.463  -6085362.798
10 0 59298  62742.000000  0    3763061.366   1333951.795  -5621381.675
10 0 59298  62862.000000  0    4490531.819   1332487.056  -5059151.275
10 0 59298  62982.000000  0    5139659.829   1295829.461  -4408409.239
10 0 59298  63102.000000  0    5698474.573   1226067.167  -3680457.546
10 0 59298  63222.000000  0    6156594.697   1126061.334  -2887975.194
99
